{"fetched_at":"2026-07-10T18:07:50.152Z","source":"https://celestrak.org/NORAD/elements/gp.php?GROUP=kuiper&FORMAT=JSON","constellation":"kuiper","records":[{"OBJECT_NAME":"KUIPER-00265","OBJECT_ID":"2025-301AC","EPOCH":"2026-07-09T05:23:54.440160","CLASSIFICATION_TYPE":"U","MEAN_MOTION":14.7993127,"ECCENTRICITY":0.00005837,"INCLINATION":51.902,"RA_OF_ASC_NODE":268.2143,"ARG_OF_PERICENTER":101.7124,"MEAN_ANOMALY":258.3904,"EPHEMERIS_TYPE":0,"NORAD_CAT_ID":67159,"ELEMENT_SET_NO":999,"REV_AT_EPOCH":3148,"BSTAR":0.00024378235,"MEAN_MOTION_DOT":0.00001638,"MEAN_MOTION_DDOT":0},{"OBJECT_NAME":"KUIPER-00159","OBJECT_ID":"2026-030A","EPOCH":"2026-07-10T06:00:02.000160","CLASSIFICATION_TYPE":"U","MEAN_MOTION":15.33116246,"ECCENTRICITY":0.00059295,"INCLINATION":51.8868,"RA_OF_ASC_NODE":346.7789,"ARG_OF_PERICENTER":114.9508,"MEAN_ANOMALY":295.4014,"EPHEMERIS_TYPE":0,"NORAD_CAT_ID":67764,"ELEMENT_SET_NO":999,"REV_AT_EPOCH":468,"BSTAR":0.0013137647,"MEAN_MOTION_DOT":0.00042548,"MEAN_MOTION_DDOT":0},{"OBJECT_NAME":"KUIPER-00160","OBJECT_ID":"2026-030B","EPOCH":"2026-07-09T17:13:03.518976","CLASSIFICATION_TYPE":"U","MEAN_MOTION":15.37470908,"ECCENTRICITY":0.00072568,"INCLINATION":51.8799,"RA_OF_ASC_NODE":349.2747,"ARG_OF_PERICENTER":118.7619,"MEAN_ANOMALY":241.4098,"EPHEMERIS_TYPE":0,"NORAD_CAT_ID":67765,"ELEMENT_SET_NO":999,"REV_AT_EPOCH":2386,"BSTAR":0.00054728494,"MEAN_MOTION_DOT":0.00020102,"MEAN_MOTION_DDOT":0},{"OBJECT_NAME":"KUIPER-00177","OBJECT_ID":"2026-030C","EPOCH":"2026-07-08T18:23:58.096896","CLASSIFICATION_TYPE":"U","MEAN_MOTION":14.79918458,"ECCENTRICITY":0.00006725,"INCLINATION":51.9003,"RA_OF_ASC_NODE":37.7215,"ARG_OF_PERICENTER":109.8362,"MEAN_ANOMALY":250.2673,"EPHEMERIS_TYPE":0,"NORAD_CAT_ID":67766,"ELEMENT_SET_NO":999,"REV_AT_EPOCH":2310,"BSTAR":0.00033151204,"MEAN_MOTION_DOT":0.00002306,"MEAN_MOTION_DDOT":0},{"OBJECT_NAME":"KUIPER-00178","OBJECT_ID":"2026-030D","EPOCH":"2026-07-08T20:49:49.684224","CLASSIFICATION_TYPE":"U","MEAN_MOTION":14.79923391,"ECCENTRICITY":0.00008911,"INCLINATION":51.8995,"RA_OF_ASC_NODE":37.2568,"ARG_OF_PERICENTER":109.4967,"MEAN_ANOMALY":250.6092,"EPHEMERIS_TYPE":0,"NORAD_CAT_ID":67767,"ELEMENT_SET_NO":999,"REV_AT_EPOCH":2312,"BSTAR":0.00013981172,"MEAN_MOTION_DOT":0.00000845,"MEAN_MOTION_DDOT":0},{"OBJECT_NAME":"KUIPER-00180","OBJECT_ID":"2026-030E","EPOCH":"2026-07-08T22:34:50.177856","CLASSIFICATION_TYPE":"U","MEAN_MOTION":14.79920755,"ECCENTRICITY":0.00007562,"INCLINATION":51.8985,"RA_OF_ASC_NODE":31.9392,"ARG_OF_PERICENTER":113.0002,"MEAN_ANOMALY":247.104,"EPHEMERIS_TYPE":0,"NORAD_CAT_ID":67768,"ELEMENT_SET_NO":999,"REV_AT_EPOCH":2320,"BSTAR":0.0003111952,"MEAN_MOTION_DOT":0.00002151,"MEAN_MOTION_DDOT":0},{"OBJECT_NAME":"KUIPER-00197","OBJECT_ID":"2026-030F","EPOCH":"2026-07-09T12:03:50.964480","CLASSIFICATION_TYPE":"U","MEAN_MOTION":14.79925511,"ECCENTRICITY":0.00006104,"INCLINATION":51.8994,"RA_OF_ASC_NODE":9.4668,"ARG_OF_PERICENTER":151.4746,"MEAN_ANOMALY":208.625,"EPHEMERIS_TYPE":0,"NORAD_CAT_ID":67769,"ELEMENT_SET_NO":999,"REV_AT_EPOCH":2356,"BSTAR":0.0003150061,"MEAN_MOTION_DOT":0.00002181,"MEAN_MOTION_DDOT":0},{"OBJECT_NAME":"KUIPER-00198","OBJECT_ID":"2026-030G","EPOCH":"2026-07-08T20:20:35.313216","CLASSIFICATION_TYPE":"U","MEAN_MOTION":14.79945605,"ECCENTRICITY":0.00004522,"INCLINATION":51.8991,"RA_OF_ASC_NODE":24.8477,"ARG_OF_PERICENTER":110.2346,"MEAN_ANOMALY":249.8665,"EPHEMERIS_TYPE":0,"NORAD_CAT_ID":67770,"ELEMENT_SET_NO":999,"REV_AT_EPOCH":2329,"BSTAR":0.0006991737,"MEAN_MOTION_DOT":0.00005115,"MEAN_MOTION_DDOT":0},{"OBJECT_NAME":"KUIPER-00199","OBJECT_ID":"2026-030H","EPOCH":"2026-07-09T17:45:35.240544","CLASSIFICATION_TYPE":"U","MEAN_MOTION":15.36933495,"ECCENTRICITY":0.0010517,"INCLINATION":51.8818,"RA_OF_ASC_NODE":350.8907,"ARG_OF_PERICENTER":133.4763,"MEAN_ANOMALY":226.7099,"EPHEMERIS_TYPE":0,"NORAD_CAT_ID":67771,"ELEMENT_SET_NO":999,"REV_AT_EPOCH":2384,"BSTAR":0.00045625662,"MEAN_MOTION_DOT":0.00016406,"MEAN_MOTION_DDOT":0},{"OBJECT_NAME":"KUIPER-00200","OBJECT_ID":"2026-030J","EPOCH":"2026-07-10T06:00:02.000160","CLASSIFICATION_TYPE":"U","MEAN_MOTION":14.79854956,"ECCENTRICITY":0.00014131,"INCLINATION":51.8987,"RA_OF_ASC_NODE":3.6869,"ARG_OF_PERICENTER":67.7319,"MEAN_ANOMALY":122.8391,"EPHEMERIS_TYPE":0,"NORAD_CAT_ID":67772,"ELEMENT_SET_NO":999,"REV_AT_EPOCH":563,"BSTAR":0.00032309889,"MEAN_MOTION_DOT":0.00002238,"MEAN_MOTION_DDOT":0},{"OBJECT_NAME":"KUIPER-00203","OBJECT_ID":"2026-030K","EPOCH":"2026-07-08T23:07:55.907328","CLASSIFICATION_TYPE":"U","MEAN_MOTION":14.7992786,"ECCENTRICITY":0.00007221,"INCLINATION":51.9057,"RA_OF_ASC_NODE":41.8916,"ARG_OF_PERICENTER":114.5362,"MEAN_ANOMALY":245.5676,"EPHEMERIS_TYPE":0,"NORAD_CAT_ID":67773,"ELEMENT_SET_NO":999,"REV_AT_EPOCH":2306,"BSTAR":0.00031883177,"MEAN_MOTION_DOT":0.0000221,"MEAN_MOTION_DDOT":0},{"OBJECT_NAME":"KUIPER-00205","OBJECT_ID":"2026-030L","EPOCH":"2026-07-09T22:43:38.826624","CLASSIFICATION_TYPE":"U","MEAN_MOTION":14.79975857,"ECCENTRICITY":0.00009633,"INCLINATION":51.9006,"RA_OF_ASC_NODE":2.478,"ARG_OF_PERICENTER":114.1584,"MEAN_ANOMALY":245.9479,"EPHEMERIS_TYPE":0,"NORAD_CAT_ID":67774,"ELEMENT_SET_NO":999,"REV_AT_EPOCH":2370,"BSTAR":0.00032596054,"MEAN_MOTION_DOT":0.00002267,"MEAN_MOTION_DDOT":0},{"OBJECT_NAME":"KUIPER-00208","OBJECT_ID":"2026-030M","EPOCH":"2026-07-10T00:05:05.798976","CLASSIFICATION_TYPE":"U","MEAN_MOTION":14.7651323,"ECCENTRICITY":0.00081792,"INCLINATION":51.899,"RA_OF_ASC_NODE":29.5847,"ARG_OF_PERICENTER":104.4685,"MEAN_ANOMALY":255.7184,"EPHEMERIS_TYPE":0,"NORAD_CAT_ID":67775,"ELEMENT_SET_NO":999,"REV_AT_EPOCH":2332,"BSTAR":0.00023708958,"MEAN_MOTION_DOT":0.00001452,"MEAN_MOTION_DDOT":0},{"OBJECT_NAME":"KUIPER-00209","OBJECT_ID":"2026-030N","EPOCH":"2026-07-08T23:23:28.416480","CLASSIFICATION_TYPE":"U","MEAN_MOTION":14.7992608,"ECCENTRICITY":0.00008138,"INCLINATION":51.9003,"RA_OF_ASC_NODE":31.8793,"ARG_OF_PERICENTER":117.1374,"MEAN_ANOMALY":242.9671,"EPHEMERIS_TYPE":0,"NORAD_CAT_ID":67776,"ELEMENT_SET_NO":999,"REV_AT_EPOCH":2320,"BSTAR":0.00030432055,"MEAN_MOTION_DOT":0.00002099,"MEAN_MOTION_DDOT":0},{"OBJECT_NAME":"KUIPER-00213","OBJECT_ID":"2026-030P","EPOCH":"2026-07-10T03:49:05.900448","CLASSIFICATION_TYPE":"U","MEAN_MOTION":14.79936285,"ECCENTRICITY":0.00007032,"INCLINATION":51.8967,"RA_OF_ASC_NODE":24.1243,"ARG_OF_PERICENTER":106.3602,"MEAN_ANOMALY":253.7438,"EPHEMERIS_TYPE":0,"NORAD_CAT_ID":67777,"ELEMENT_SET_NO":999,"REV_AT_EPOCH":2341,"BSTAR":0.00031888631,"MEAN_MOTION_DOT":0.00002211,"MEAN_MOTION_DDOT":0},{"OBJECT_NAME":"KUIPER-00214","OBJECT_ID":"2026-030Q","EPOCH":"2026-07-10T06:18:52.323840","CLASSIFICATION_TYPE":"U","MEAN_MOTION":14.79927063,"ECCENTRICITY":0.00005539,"INCLINATION":51.9019,"RA_OF_ASC_NODE":21.1724,"ARG_OF_PERICENTER":102.8599,"MEAN_ANOMALY":257.2425,"EPHEMERIS_TYPE":0,"NORAD_CAT_ID":67778,"ELEMENT_SET_NO":999,"REV_AT_EPOCH":2346,"BSTAR":0.00033085767,"MEAN_MOTION_DOT":0.00002302,"MEAN_MOTION_DDOT":0}]}
